IRIDIUM 26              
1 24903U 97043A   25149.17798669  .00000422  00000+0  13533-3 0  9990
2 24903  86.3940 118.6081 0002401  91.6872 268.4600 14.37130244454485
IRIDIUM 22              
1 24907U 97043E   25148.95274507  .00000352  00000+0  11443-3 0  9999
2 24907  86.3946 122.2251 0002367  87.6786 272.4682 14.35944989454016
DUMMY MASS 1            
1 24925U 97048A   25148.69974716  .00000394  00000+0  40907-4 0  9998
2 24925  86.3341 144.3393 0005584 195.0177 165.0883 14.86970827502233
DUMMY MASS 2            
1 24926U 97048B   25148.92787117  .00000367  00000+0  38072-4 0  9992
2 24926  86.3342 145.8369 0005905 210.1077 149.9809 14.86723330502042
IRIDIUM 29              
1 24944U 97051A   25148.98247220  .00000393  00000+0  12743-3 0  9993
2 24944  86.3961 151.9514 0002254  84.7540 275.3915 14.36451519450735
IRIDIUM 33              
1 24946U 97051C   25149.01298613  .00000249  00000+0  80544-4 0  9997
2 24946  86.3875 151.1971 0009425 130.3128 229.8893 14.34881304450003
IRIDIUM 28              
1 24948U 97051E   25148.96852517  .00000324  00000+0  10199-3 0  9993
2 24948  86.3964 149.4852 0002584  98.5827 261.5664 14.37372995451152
IRIDIUM 36              
1 24967U 97056C   25148.37800970  .00000381  00000+0  12064-3 0  9996
2 24967  86.3996 181.3137 0002588  91.1117 269.0377 14.37594396449370
